0 TITAN 3C TRANSTAGE DEB
1 33509U 68081K   13282.03376542 -.00000188  00000-0  10000-3 0  6000
2 33509 007.8024 320.5259 0040640 017.3634 342.7304 01.02062220 32460
0 TITAN 3C TRANSTAGE DEB
1 33509U 68081K   13283.01342528 -.00000168  00000-0  10000-3 0  6015
2 33509 007.8010 320.5194 0039455 019.5223 340.5246 01.02061084 32472
0 TITAN 3C TRANSTAGE DEB
1 33509U 68081K   13283.01344797  .00000000  00000-0  10000-3 0  6020
2 33509 007.8015 320.5209 0041658 015.6452 344.4106 01.02057181 32474
0 TITAN 3C TRANSTAGE DEB
1 33509U 68081K   13284.97304210 -.00000124  00000-0  10000-3 0  6020
2 33509 007.7987 320.5067 0039779 018.9517 341.1135 01.02060274 32497
0 TITAN 3C TRANSTAGE DEB
1 33509U 68081K   13287.91234604 -.00000053  00000-0  10000-3 0  6038
2 33509 007.7951 320.4869 0039942 018.5999 341.4455 01.02059249 32521
0 TITAN 3C TRANSTAGE DEB
1 33509U 68081K   13291.83145026  .00000007  00000-0  10000-3 0  6042
2 33509 007.7907 320.4625 0040241 018.3552 341.6666 01.02058873 32561
0 TITAN 3C TRANSTAGE DEB
1 33509U 68081K   13294.77084720 -.00000008  00000-0  10000-3 0  6054
2 33509 007.7875 320.4502 0042524 014.3175 345.7377 01.02060335 32595
